CCSDS_OMM_VERS = 2.0
CREATION_DATE  = 
ORIGINATOR     = 

OBJECT_NAME    = HULIANWANG DIGUI 13B
OBJECT_ID      = 2025-258B
CENTER_NAME    = EARTH
REF_FRAME      = TEME
TIME_SYSTEM    = UTC
MEAN_ELEMENT_THEORY = SGP/SGP4

EPOCH          = 2025-11-18T10:14:03.026688
MEAN_MOTION    = 14.24651000
ECCENTRICITY   = .00130099
INCLINATION    = 50.0056
RA_OF_ASC_NODE = 4.3371
ARG_OF_PERICENTER = 269.1535
MEAN_ANOMALY   = 90.7888

EPHEMERIS_TYPE = 0
CLASSIFICATION_TYPE = U
NORAD_CAT_ID   = 66413
ELEMENT_SET_NO = 999
REV_AT_EPOCH   = 119
BSTAR          = .74557871E-4
MEAN_MOTION_DOT = .15E-6
MEAN_MOTION_DDOT = 0

CCSDS_OMM_VERS = 2.0
CREATION_DATE  = 
ORIGINATOR     = 

OBJECT_NAME    = HULIANWANG DIGUI 13C
OBJECT_ID      = 2025-258C
CENTER_NAME    = EARTH
REF_FRAME      = TEME
TIME_SYSTEM    = UTC
MEAN_ELEMENT_THEORY = SGP/SGP4

EPOCH          = 2025-11-19T06:24:46.335744
MEAN_MOTION    = 14.25520842
ECCENTRICITY   = .00134731
INCLINATION    = 50.0087
RA_OF_ASC_NODE = 0.8096
ARG_OF_PERICENTER = 275.0373
MEAN_ANOMALY   = 84.9002

EPHEMERIS_TYPE = 0
CLASSIFICATION_TYPE = U
NORAD_CAT_ID   = 66414
ELEMENT_SET_NO = 999
REV_AT_EPOCH   = 131
BSTAR          = .4512424E-4
MEAN_MOTION_DOT = -.53E-6
MEAN_MOTION_DDOT = 0

CCSDS_OMM_VERS = 2.0
CREATION_DATE  = 
ORIGINATOR     = 

OBJECT_NAME    = HULIANWANG DIGUI 13D
OBJECT_ID      = 2025-258D
CENTER_NAME    = EARTH
REF_FRAME      = TEME
TIME_SYSTEM    = UTC
MEAN_ELEMENT_THEORY = SGP/SGP4

EPOCH          = 2025-11-19T06:24:05.935104
MEAN_MOTION    = 14.25899049
ECCENTRICITY   = .00130783
INCLINATION    = 50.0050
RA_OF_ASC_NODE = 0.8059
ARG_OF_PERICENTER = 281.8037
MEAN_ANOMALY   = 78.1410

EPHEMERIS_TYPE = 0
CLASSIFICATION_TYPE = U
NORAD_CAT_ID   = 66415
ELEMENT_SET_NO = 999
REV_AT_EPOCH   = 131
BSTAR          = .43849382E-4
MEAN_MOTION_DOT = -.55E-6
MEAN_MOTION_DDOT = 0

CCSDS_OMM_VERS = 2.0
CREATION_DATE  = 
ORIGINATOR     = 

OBJECT_NAME    = HULIANWANG DIGUI 13E
OBJECT_ID      = 2025-258E
CENTER_NAME    = EARTH
REF_FRAME      = TEME
TIME_SYSTEM    = UTC
MEAN_ELEMENT_THEORY = SGP/SGP4

EPOCH          = 2025-11-19T06:22:55.896672
MEAN_MOTION    = 14.25962870
ECCENTRICITY   = .00124925
INCLINATION    = 50.0073
RA_OF_ASC_NODE = 0.8066
ARG_OF_PERICENTER = 280.3341
MEAN_ANOMALY   = 79.6164

EPHEMERIS_TYPE = 0
CLASSIFICATION_TYPE = U
NORAD_CAT_ID   = 66416
ELEMENT_SET_NO = 999
REV_AT_EPOCH   = 131
BSTAR          = .40082531E-4
MEAN_MOTION_DOT = -.64E-6
MEAN_MOTION_DDOT = 0

CCSDS_OMM_VERS = 2.0
CREATION_DATE  = 
ORIGINATOR     = 

OBJECT_NAME    = HULIANWANG DIGUI 13F
OBJECT_ID      = 2025-258F
CENTER_NAME    = EARTH
REF_FRAME      = TEME
TIME_SYSTEM    = UTC
MEAN_ELEMENT_THEORY = SGP/SGP4

EPOCH          = 2025-11-18T06:49:48.474912
MEAN_MOTION    = 14.25880568
ECCENTRICITY   = .00215902
INCLINATION    = 50.2841
RA_OF_ASC_NODE = 5.1649
ARG_OF_PERICENTER = 286.1567
MEAN_ANOMALY   = 73.6975

EPHEMERIS_TYPE = 0
CLASSIFICATION_TYPE = U
NORAD_CAT_ID   = 66417
ELEMENT_SET_NO = 999
REV_AT_EPOCH   = 117
BSTAR          = .68484273E-4
MEAN_MOTION_DOT = .4E-7
MEAN_MOTION_DDOT = 0

CCSDS_OMM_VERS = 2.0
CREATION_DATE  = 
ORIGINATOR     = 

OBJECT_NAME    = HULIANWANG DIGUI 13G
OBJECT_ID      = 2025-258G
CENTER_NAME    = EARTH
REF_FRAME      = TEME
TIME_SYSTEM    = UTC
MEAN_ELEMENT_THEORY = SGP/SGP4

EPOCH          = 2025-11-18T11:52:25.277664
MEAN_MOTION    = 14.26082453
ECCENTRICITY   = .00120771
INCLINATION    = 50.0021
RA_OF_ASC_NODE = 4.0439
ARG_OF_PERICENTER = 273.0399
MEAN_ANOMALY   = 86.9133

EPHEMERIS_TYPE = 0
CLASSIFICATION_TYPE = U
NORAD_CAT_ID   = 66418
ELEMENT_SET_NO = 999
REV_AT_EPOCH   = 120
BSTAR          = .6223363E-4
MEAN_MOTION_DOT = -.1E-6
MEAN_MOTION_DDOT = 0

CCSDS_OMM_VERS = 2.0
CREATION_DATE  = 
ORIGINATOR     = 

OBJECT_NAME    = HULIANWANG DIGUI 13H
OBJECT_ID      = 2025-258H
CENTER_NAME    = EARTH
REF_FRAME      = TEME
TIME_SYSTEM    = UTC
MEAN_ELEMENT_THEORY = SGP/SGP4

EPOCH          = 2025-11-19T08:01:52.374144
MEAN_MOTION    = 14.26238712
ECCENTRICITY   = .00114873
INCLINATION    = 50.0015
RA_OF_ASC_NODE = 0.4833
ARG_OF_PERICENTER = 278.8537
MEAN_ANOMALY   = 81.1076

EPHEMERIS_TYPE = 0
CLASSIFICATION_TYPE = U
NORAD_CAT_ID   = 66419
ELEMENT_SET_NO = 999
REV_AT_EPOCH   = 132
BSTAR          = .34339038E-4
MEAN_MOTION_DOT = -.77E-6
MEAN_MOTION_DDOT = 0

CCSDS_OMM_VERS = 2.0
CREATION_DATE  = 
ORIGINATOR     = 

OBJECT_NAME    = HULIANWANG DIGUI 13J
OBJECT_ID      = 2025-258J
CENTER_NAME    = EARTH
REF_FRAME      = TEME
TIME_SYSTEM    = UTC
MEAN_ELEMENT_THEORY = SGP/SGP4

EPOCH          = 2025-11-19T06:19:58.302336
MEAN_MOTION    = 14.26344792
ECCENTRICITY   = .00109774
INCLINATION    = 50.0034
RA_OF_ASC_NODE = 0.7819
ARG_OF_PERICENTER = 283.0744
MEAN_ANOMALY   = 76.8944

EPHEMERIS_TYPE = 0
CLASSIFICATION_TYPE = U
NORAD_CAT_ID   = 66420
ELEMENT_SET_NO = 999
REV_AT_EPOCH   = 130
BSTAR          = .33003538E-4
MEAN_MOTION_DOT = -.81E-6
MEAN_MOTION_DDOT = 0

CCSDS_OMM_VERS = 2.0
CREATION_DATE  = 
ORIGINATOR     = 

OBJECT_NAME    = CZ-12 R/B
OBJECT_ID      = 2025-258K
CENTER_NAME    = EARTH
REF_FRAME      = TEME
TIME_SYSTEM    = UTC
MEAN_ELEMENT_THEORY = SGP/SGP4

EPOCH          = 2025-11-19T07:14:37.387968
MEAN_MOTION    = 14.42310355
ECCENTRICITY   = .0064598
INCLINATION    = 49.9959
RA_OF_ASC_NODE = 359.6521
ARG_OF_PERICENTER = 165.1765
MEAN_ANOMALY   = 195.1068

EPHEMERIS_TYPE = 0
CLASSIFICATION_TYPE = U
NORAD_CAT_ID   = 66421
ELEMENT_SET_NO = 999
REV_AT_EPOCH   = 133
BSTAR          = .31685348E-4
MEAN_MOTION_DOT = -.64E-6
MEAN_MOTION_DDOT = 0

CCSDS_OMM_VERS = 2.0
CREATION_DATE  = 
ORIGINATOR     = 

OBJECT_NAME    = VIASAT-3 F2
OBJECT_ID      = 2025-261A
CENTER_NAME    = EARTH
REF_FRAME      = TEME
TIME_SYSTEM    = UTC
MEAN_ELEMENT_THEORY = SGP/SGP4

EPOCH          = 2025-11-19T02:06:38.892096
MEAN_MOTION    = 2.28672155
ECCENTRICITY   = .23459897
INCLINATION    = 5.6108
RA_OF_ASC_NODE = 294.6646
ARG_OF_PERICENTER = 181.1879
MEAN_ANOMALY   = 156.9129

EPHEMERIS_TYPE = 0
CLASSIFICATION_TYPE = U
NORAD_CAT_ID   = 66454
ELEMENT_SET_NO = 999
REV_AT_EPOCH   = 10
BSTAR          = 0
MEAN_MOTION_DOT = -.71E-6
MEAN_MOTION_DDOT = 0

CCSDS_OMM_VERS = 2.0
CREATION_DATE  = 
ORIGINATOR     = 

OBJECT_NAME    = ATLAS 5 CENTAUR R/B
OBJECT_ID      = 2025-261B
CENTER_NAME    = EARTH
REF_FRAME      = TEME
TIME_SYSTEM    = UTC
MEAN_ELEMENT_THEORY = SGP/SGP4

EPOCH          = 2025-11-18T16:59:11.023008
MEAN_MOTION    = 2.28238009
ECCENTRICITY   = .23300545
INCLINATION    = 6.1777
RA_OF_ASC_NODE = 294.0142
ARG_OF_PERICENTER = 181.6454
MEAN_ANOMALY   = 197.2445

EPHEMERIS_TYPE = 0
CLASSIFICATION_TYPE = U
NORAD_CAT_ID   = 66455
ELEMENT_SET_NO = 999
REV_AT_EPOCH   = 10
BSTAR          = 0
MEAN_MOTION_DOT = -.72E-6
MEAN_MOTION_DDOT = 0

CCSDS_OMM_VERS = 2.0
CREATION_DATE  = 
ORIGINATOR     = 

OBJECT_NAME    = SENTINEL-6B
OBJECT_ID      = 2025-264A
CENTER_NAME    = EARTH
REF_FRAME      = TEME
TIME_SYSTEM    = UTC
MEAN_ELEMENT_THEORY = SGP/SGP4

EPOCH          = 2025-11-19T05:08:01.201920
MEAN_MOTION    = 12.85878257
ECCENTRICITY   = .00116133
INCLINATION    = 66.0452
RA_OF_ASC_NODE = 211.6606
ARG_OF_PERICENTER = 270.4990
MEAN_ANOMALY   = 89.4697

EPHEMERIS_TYPE = 0
CLASSIFICATION_TYPE = U
NORAD_CAT_ID   = 66514
ELEMENT_SET_NO = 999
REV_AT_EPOCH   = 26
BSTAR          = .39999303E-2
MEAN_MOTION_DOT = .926E-5
MEAN_MOTION_DDOT = 0

