HULIANWANG DIGUI 13B    
1 66413U 25258B   25322.42642392  .00000015  00000+0  74558-4 0  9996
2 66413  50.0056   4.3371 0013009 269.1535  90.7888 14.24651000  1194
HULIANWANG DIGUI 13C    
1 66414U 25258C   25323.26720296 -.00000053  00000+0  45124-4 0  9990
2 66414  50.0087   0.8096 0013473 275.0373  84.9002 14.25520842  1312
HULIANWANG DIGUI 13D    
1 66415U 25258D   25323.26673536 -.00000055  00000+0  43849-4 0  9999
2 66415  50.0050   0.8059 0013078 281.8037  78.1410 14.25899049  1311
HULIANWANG DIGUI 13E    
1 66416U 25258E   25323.26592473 -.00000064  00000+0  40083-4 0  9997
2 66416  50.0073   0.8066 0012492 280.3341  79.6164 14.25962870  1311
HULIANWANG DIGUI 13F    
1 66417U 25258F   25322.28458883  .00000004  00000+0  68484-4 0  9993
2 66417  50.2841   5.1649 0021590 286.1567  73.6975 14.25880568  1176
HULIANWANG DIGUI 13G    
1 66418U 25258G   25322.49473701 -.00000010  00000+0  62234-4 0  9998
2 66418  50.0021   4.0439 0012077 273.0399  86.9133 14.26082453  1203
HULIANWANG DIGUI 13H    
1 66419U 25258H   25323.33463396 -.00000077  00000+0  34339-4 0  9990
2 66419  50.0015   0.4833 0011487 278.8537  81.1076 14.26238712  1323
HULIANWANG DIGUI 13J    
1 66420U 25258J   25323.26386924 -.00000081  00000+0  33004-4 0  9998
2 66420  50.0034   0.7819 0010977 283.0744  76.8944 14.26344792  1303
CZ-12 R/B               
1 66421U 25258K   25323.30182162 -.00000064  00000+0  31685-4 0  9996
2 66421  49.9959 359.6521 0064598 165.1765 195.1068 14.42310355  1335
VIASAT-3 F2             
1 66454U 25261A   25323.08795014 -.00000071  00000+0  00000+0 0  9997
2 66454   5.6108 294.6646 2345989 181.1879 156.9129  2.28672155   101
ATLAS 5 CENTAUR R/B     
1 66455U 25261B   25322.70776647 -.00000072  00000+0  00000+0 0  9998
2 66455   6.1777 294.0142 2330054 181.6454 197.2445  2.28238009   101
SENTINEL-6B             
1 66514U 25264A   25323.21390280  .00000926  00000+0  39999-2 0  9998
2 66514  66.0452 211.6606 0011613 270.4990  89.4697 12.85878257   266
